[{"OBJECT_NAME":"TECHNOSAT","OBJECT_ID":"2017-042E","EPOCH":"2026-03-09T21:27:07.546176","MEAN_MOTION":15.04288119,"ECCENTRICITY":0.00196291,"INCLINATION":97.4156,"RA_OF_ASC_NODE":230.4429,"ARG_OF_PERICENTER":75.0719,"MEAN_ANOMALY":285.2679,"EPHEMERIS_TYPE":0,"CLASSIFICATION_TYPE":"U","NORAD_CAT_ID":42829,"ELEMENT_SET_NO":999,"REV_AT_EPOCH":47177,"BSTAR":0.00032015047,"MEAN_MOTION_DOT":4.417e-5,"MEAN_MOTION_DDOT":0},{"OBJECT_NAME":"STARLINK-4050","OBJECT_ID":"2022-086AJ","EPOCH":"2026-03-09T15:22:30.651456","MEAN_MOTION":15.08841932,"ECCENTRICITY":0.0001436,"INCLINATION":53.2179,"RA_OF_ASC_NODE":184.3421,"ARG_OF_PERICENTER":84.6806,"MEAN_ANOMALY":275.435,"EPHEMERIS_TYPE":0,"CLASSIFICATION_TYPE":"U","NORAD_CAT_ID":53274,"ELEMENT_SET_NO":999,"REV_AT_EPOCH":20119,"BSTAR":-3.5815e-5,"MEAN_MOTION_DOT":-8.58e-6,"MEAN_MOTION_DDOT":0}]
